ONEWEB-0634             
1 56075U 23043AF  26005.23410326  .00000239  00000+0  59974-3 0  9999
2 56075  87.9012 291.7544 0001399  81.0705 279.0583 13.15547685134970
ONEWEB-0635             
1 56076U 23043AG  26005.30540624  .00000137  00000+0  32990-3 0  9999
2 56076  87.9005 291.6932 0001960  73.5395 286.5951 13.15548717135013
ONEWEB-0636             
1 56077U 23043AH  26005.22142467  .00000194  00000+0  48087-3 0  9991
2 56077  87.9006 291.7273 0001886  74.2940 285.8398 13.15549299134983
ONEWEB-0637             
1 56078U 23043AJ  26005.29113171 -.00000088  00000+0 -26814-3 0  9997
2 56078  87.9007 291.7302 0001801  82.7411 277.3924 13.15550835135016
ONEWEB-0647             
1 56079U 23043AK  26005.28639509  .00000008  00000+0 -11763-4 0  9994
2 56079  87.9005 291.7446 0001778  70.4087 289.7235 13.15547718135007
ONEWEB-0651             
1 56080U 23043AL  26005.35770286 -.00000131  00000+0 -38312-3 0  9998
2 56080  87.9013 291.7234 0001947  78.7074 281.4275 13.15547601136216
ONEWEB-0718             
1 56081U 23043AM  26005.35292501  .00000032  00000+0  50639-4 0  9993
2 56081  87.9010 291.7048 0001177  86.3190 273.8075 13.15550705135026
ONEWEB-0561             
1 56710U 23068A   26005.54795460  .00000049  00000+0  88300-4 0  9996
2 56710  87.9218 306.8897 0002146  71.8276 288.3091 13.20771828128035
